start=new Date('2021-09-27T00:00:00.000Z').valueOf();
sats=[{"REF_FRAME":"TEME","LAUNCH_DATE":"2021-03-11","MEAN_ELEMENT_THEORY":"SGP4","MEAN_MOTION":"15.06408009","MEAN_MOTION_DDOT":"0.0000000000000","ARG_OF_PERICENTER":"97.8087","FILE":"3129258","SITE":"AFETR","APOAPSIS":"547.972","RA_OF_ASC_NODE":"352.2412","REV_AT_EPOCH":"3157","GP_ID":"185551085","PERIAPSIS":"546.406","DECAY_DATE":null,"OBJECT_TYPE":"PAYLOAD","SEMIMAJOR_AXIS":"6925.324","TIME_SYSTEM":"UTC","OBJECT_NAME":"STARLINK-2377","ECCENTRICITY":"0.00011310","MEAN_ANOMALY":"262.3030","COUNTRY_CODE":"US","CENTER_NAME":"EARTH","RCS_SIZE":"LARGE","BSTAR":"-0.00000463520000","OBJECT_ID":"2021-018L","INCLINATION":"53.0567","EPOCH":"2021-09-26T12:39:19.761984","NORAD_CAT_ID":"47797","EPHEMERIS_TYPE":"0","TLE_LINE2":"2 47797  53.0567 352.2412 0001131  97.8087 262.3030 15.06408009 31571","CLASSIFICATION_TYPE":"U","PERIOD":"95.592","ELEMENT_SET_NO":"999","MEAN_MOTION_DOT":"-0.00000350","TLE_LINE1":"1 47797U 21018L   21269.52731206 -.00000350  00000-0 -46352-5 0  9997"},{"INCLINATION":"53.0555","CENTER_NAME":"EARTH","RCS_SIZE":"LARGE","MEAN_ANOMALY":"248.3191","COUNTRY_CODE":"US","OBJECT_ID":"2021-018M","BSTAR":"-0.00012714000000","MEAN_MOTION_DOT":"-0.00002175","ELEMENT_SET_NO":"999","TLE_LINE1":"1 47798U 21018M   21269.43561530 -.00002175  00000-0 -12714-3 0  9999","NORAD_CAT_ID":"47798","EPOCH":"2021-09-26T10:27:17.161920","PERIOD":"95.591","CLASSIFICATION_TYPE":"U","TLE_LINE2":"2 47798  53.0555 327.6563 0000922 111.7896 248.3191 15.06416117 31912","EPHEMERIS_TYPE":"0","GP_ID":"185550836","REV_AT_EPOCH":"3191","SITE":"AFETR","FILE":"3129258","RA_OF_ASC_NODE":"327.6563","APOAPSIS":"547.803","TIME_SYSTEM":"UTC","OBJECT_NAME":"STARLINK-2379","ECCENTRICITY":"0.00009220","PERIAPSIS":"546.526","OBJECT_TYPE":"PAYLOAD","SEMIMAJOR_AXIS":"6925.299","DECAY_DATE":null,"ARG_OF_PERICENTER":"111.7896","REF_FRAME":"TEME","LAUNCH_DATE":"2021-03-11","MEAN_MOTION_DDOT":"0.0000000000000","MEAN_ELEMENT_THEORY":"SGP4","MEAN_MOTION":"15.06416117"},{"CENTER_NAME":"EARTH","RCS_SIZE":"LARGE","COUNTRY_CODE":"US","MEAN_ANOMALY":"233.1684","BSTAR":"0.00005782500000","OBJECT_ID":"2021-018N","INCLINATION":"53.0580","NORAD_CAT_ID":"47799","EPOCH":"2021-09-26T10:21:59.145984","PERIOD":"95.592","EPHEMERIS_TYPE":"0","TLE_LINE2":"2 47799  53.0580 327.6804 0000874 126.9385 233.1684 15.06403264 31565","CLASSIFICATION_TYPE":"U","MEAN_MOTION_DOT":"0.00000580","ELEMENT_SET_NO":"999","TLE_LINE1":"1 47799U 21018N   21269.43193456  .00000580  00000-0  57825-4 0  9997","SITE":"AFETR","FILE":"3129527","RA_OF_ASC_NODE":"327.6804","APOAPSIS":"547.809","GP_ID":"185559600","REV_AT_EPOCH":"3156","PERIAPSIS":"546.598","SEMIMAJOR_AXIS":"6925.339","OBJECT_TYPE":"PAYLOAD","DECAY_DATE":null,"OBJECT_NAME":"STARLINK-2380","TIME_SYSTEM":"UTC","ECCENTRICITY":"0.00008740","ARG_OF_PERICENTER":"126.9385","REF_FRAME":"TEME","LAUNCH_DATE":"2021-03-11","MEAN_ELEMENT_THEORY":"SGP4","MEAN_MOTION":"15.06403264","MEAN_MOTION_DDOT":"0.0000000000000"},{"TLE_LINE1":"1 47800U 21018P   21269.45406066  .00000867  00000-0  77103-4 0  9995","MEAN_MOTION_DOT":"0.00000867","ELEMENT_SET_NO":"999","PERIOD":"95.592","TLE_LINE2":"2 47800  53.0554 327.5776 0000967  94.5604 265.5495 15.06398145 31574","EPHEMERIS_TYPE":"0","CLASSIFICATION_TYPE":"U","NORAD_CAT_ID":"47800","EPOCH":"2021-09-26T10:53:50.841024","INCLINATION":"53.0554","BSTAR":"0.00007710300000","OBJECT_ID":"2021-018P","RCS_SIZE":"LARGE","CENTER_NAME":"EARTH","MEAN_ANOMALY":"265.5495","COUNTRY_CODE":"US","ECCENTRICITY":"0.00009670","TIME_SYSTEM":"UTC","OBJECT_NAME":"STARLINK-2381","SEMIMAJOR_AXIS":"6925.354","OBJECT_TYPE":"PAYLOAD","DECAY_DATE":null,"PERIAPSIS":"546.550","GP_ID":"185556792","REV_AT_EPOCH":"3157","RA_OF_ASC_NODE":"327.5776","APOAPSIS":"547.889","SITE":"AFETR","FILE":"3129397","ARG_OF_PERICENTER":"94.5604","MEAN_MOTION_DDOT":"0.0000000000000","MEAN_MOTION":"15.06398145","MEAN_ELEMENT_THEORY":"SGP4","LAUNCH_DATE":"2021-03-11","REF_FRAME":"TEME"},{"ECCENTRICITY":"0.00005080","OBJECT_NAME":"STARLINK-2382","TIME_SYSTEM":"UTC","SEMIMAJOR_AXIS":"6925.363","OBJECT_TYPE":"PAYLOAD","DECAY_DATE":null,"PERIAPSIS":"546.876","GP_ID":"185550586","REV_AT_EPOCH":"3185","RA_OF_ASC_NODE":"332.4724","APOAPSIS":"547.580","SITE":"AFETR","FILE":"3129258","TLE_LINE1":"1 47801U 21018Q   21269.47660928 -.00000054  00000-0  15218-4 0  9995","MEAN_MOTION_DOT":"-0.00000054","ELEMENT_SET_NO":"999","PERIOD":"95.592","CLASSIFICATION_TYPE":"U","TLE_LINE2":"2 47801  53.0568 332.4724 0000508 144.5214 215.5809 15.06395335 31855","EPHEMERIS_TYPE":"0","NORAD_CAT_ID":"47801","EPOCH":"2021-09-26T11:26:19.041792","INCLINATION":"53.0568","BSTAR":"0.00001521800000","OBJECT_ID":"2021-018Q","CENTER_NAME":"EARTH","RCS_SIZE":"LARGE","COUNTRY_CODE":"US","MEAN_ANOMALY":"215.5809","MEAN_MOTION_DDOT":"0.0000000000000","MEAN_MOTION":"15.06395335","MEAN_ELEMENT_THEORY":"SGP4","LAUNCH_DATE":"2021-03-11","REF_FRAME":"TEME","ARG_OF_PERICENTER":"144.5214"},{"TLE_LINE1":"1 47802U 21018R   21269.66736755  .00001863  00000-0  14401-3 0  9999","MEAN_MOTION_DOT":"0.00001863","ELEMENT_SET_NO":"999","PERIOD":"95.592","TLE_LINE2":"2 47802  53.0575 351.6877 0004148 350.6462   9.4449 15.06399419 31605","CLASSIFICATION_TYPE":"U","EPHEMERIS_TYPE":"0","NORAD_CAT_ID":"47802","EPOCH":"2021-09-26T16:01:00.556320","INCLINATION":"53.0575","OBJECT_ID":"2021-018R","BSTAR":"0.00014401000000","CENTER_NAME":"EARTH","RCS_SIZE":"LARGE","MEAN_ANOMALY":"9.4449","COUNTRY_CODE":"US","ECCENTRICITY":"0.00041480","TIME_SYSTEM":"UTC","OBJECT_NAME":"STARLINK-2383","SEMIMAJOR_AXIS":"6925.350","OBJECT_TYPE":"PAYLOAD","DECAY_DATE":null,"PERIAPSIS":"544.343","GP_ID":"185582487","REV_AT_EPOCH":"3160","RA_OF_ASC_NODE":"351.6877","APOAPSIS":"550.088","SITE":"AFETR","FILE":"3129566","ARG_OF_PERICENTER":"350.6462","MEAN_MOTION_DDOT":"0.0000000000000","MEAN_ELEMENT_THEORY":"SGP4","MEAN_MOTION":"15.06399419","LAUNCH_DATE":"2021-03-11","REF_FRAME":"TEME"},{"ARG_OF_PERICENTER":"121.2144","MEAN_MOTION_DDOT":"0.0000000000000","MEAN_ELEMENT_THEORY":"SGP4","MEAN_MOTION":"15.06402028","REF_FRAME":"TEME","LAUNCH_DATE":"2021-03-11","MEAN_MOTION_DOT":"-0.00005675","ELEMENT_SET_NO":"999","TLE_LINE1":"1 47803U 21018S   21269.46511042 -.00005675  00000-0 -36241-3 0  9991","NORAD_CAT_ID":"47803","EPOCH":"2021-09-26T11:09:45.540288","PERIOD":"95.592","CLASSIFICATION_TYPE":"U","TLE_LINE2":"2 47803  53.0566 327.5297 0000826 121.2144 238.8926 15.06402028 31577","EPHEMERIS_TYPE":"0","INCLINATION":"53.0566","CENTER_NAME":"EARTH","RCS_SIZE":"LARGE","MEAN_ANOMALY":"238.8926","COUNTRY_CODE":"US","OBJECT_ID":"2021-018S","BSTAR":"-0.00036241000000","OBJECT_NAME":"STARLINK-2384","TIME_SYSTEM":"UTC","ECCENTRICITY":"0.00008260","PERIAPSIS":"546.635","OBJECT_TYPE":"PAYLOAD","SEMIMAJOR_AXIS":"6925.342","DECAY_DATE":null,"GP_ID":"185559593","REV_AT_EPOCH":"3157","SITE":"AFETR","FILE":"3129527","RA_OF_ASC_NODE":"327.5297","APOAPSIS":"547.779"},{"MEAN_MOTION_DDOT":"0.0000000000000","MEAN_MOTION":"15.06389949","MEAN_ELEMENT_THEORY":"SGP4","REF_FRAME":"TEME","LAUNCH_DATE":"2021-03-11","ARG_OF_PERICENTER":"115.0221","TIME_SYSTEM":"UTC","OBJECT_NAME":"STARLINK-2385","ECCENTRICITY":"0.00007190","PERIAPSIS":"546.746","DECAY_DATE":null,"OBJECT_TYPE":"PAYLOAD","SEMIMAJOR_AXIS":"6925.379","REV_AT_EPOCH":"3191","GP_ID":"185581985","SITE":"AFETR","FILE":"3129566","APOAPSIS":"547.742","RA_OF_ASC_NODE":"327.4570","ELEMENT_SET_NO":"999","MEAN_MOTION_DOT":"0.00001458","TLE_LINE1":"1 47804U 21018T   21269.47985809  .00001458  00000-0  11678-3 0  9999","EPOCH":"2021-09-26T11:30:59.738976","NORAD_CAT_ID":"47804","CLASSIFICATION_TYPE":"U","TLE_LINE2":"2 47804  53.0564 327.4570 0000719 115.0221 245.0843 15.06389949 31919","EPHEMERIS_TYPE":"0","PERIOD":"95.593","INCLINATION":"53.0564","MEAN_ANOMALY":"245.0843","COUNTRY_CODE":"US","CENTER_NAME":"EARTH","RCS_SIZE":"LARGE","OBJECT_ID":"2021-018T","BSTAR":"0.00011678000000"},{"ARG_OF_PERICENTER":"128.2541","MEAN_MOTION_DDOT":"0.0000000000000","MEAN_MOTION":"15.06405748","MEAN_ELEMENT_THEORY":"SGP4","LAUNCH_DATE":"2021-03-11","REF_FRAME":"TEME","TLE_LINE1":"1 47805U 21018U   21269.42361628  .00002100  00000-0  15982-3 0  9999","ELEMENT_SET_NO":"999","MEAN_MOTION_DOT":"0.00002100","TLE_LINE2":"2 47805  53.0559 327.7072 0000869 128.2541 231.8527 15.06405748 31919","EPHEMERIS_TYPE":"0","CLASSIFICATION_TYPE":"U","PERIOD":"95.592","EPOCH":"2021-09-26T10:10:00.446592","NORAD_CAT_ID":"47805","INCLINATION":"53.0559","BSTAR":"0.00015982000000","OBJECT_ID":"2021-018U","COUNTRY_CODE":"US","MEAN_ANOMALY":"231.8527","CENTER_NAME":"EARTH","RCS_SIZE":"LARGE","ECCENTRICITY":"0.00008690","OBJECT_NAME":"STARLINK-2386","TIME_SYSTEM":"UTC","DECAY_DATE":null,"OBJECT_TYPE":"PAYLOAD","SEMIMAJOR_AXIS":"6925.331","PERIAPSIS":"546.594","REV_AT_EPOCH":"3191","GP_ID":"185551086","APOAPSIS":"547.798","RA_OF_ASC_NODE":"327.7072","FILE":"3129258","SITE":"AFETR"},{"ARG_OF_PERICENTER":"100.1835","MEAN_MOTION":"15.06385612","MEAN_ELEMENT_THEORY":"SGP4","MEAN_MOTION_DDOT":"0.0000000000000","LAUNCH_DATE":"2021-03-11","REF_FRAME":"TEME","PERIOD":"95.593","TLE_LINE2":"2 47806  53.0572 342.3059 0001283 100.1835 259.9299 15.06385612 31777","EPHEMERIS_TYPE":"0","CLASSIFICATION_TYPE":"U","NORAD_CAT_ID":"47806","EPOCH":"2021-09-26T12:23:23.989632","TLE_LINE1":"1 47806U 21018V   21269.51624988  .00000020  00000-0  20226-4 0  9998","MEAN_MOTION_DOT":"0.00000020","ELEMENT_SET_NO":"999","OBJECT_ID":"2021-018V","BSTAR":"0.00002022600000","CENTER_NAME":"EARTH","RCS_SIZE":"LARGE","COUNTRY_CODE":"US","MEAN_ANOMALY":"259.9299","INCLINATION":"53.0572","SEMIMAJOR_AXIS":"6925.393","OBJECT_TYPE":"PAYLOAD","DECAY_DATE":null,"PERIAPSIS":"546.369","ECCENTRICITY":"0.00012830","OBJECT_NAME":"STARLINK-2387","TIME_SYSTEM":"UTC","RA_OF_ASC_NODE":"342.3059","APOAPSIS":"548.146","FILE":"3129566","SITE":"AFETR","GP_ID":"185582987","REV_AT_EPOCH":"3177"}];
